[
    {
        "Altitude(m)": 553488.5131932823,
        "Argument of Periapsis(deg)": 0.0,
        "Eccentricity": 0.0,
        "Inclination(deg)": 53.0,
        "Latitude(deg)": 13.004282944759272,
        "Longitude(deg)": 5.06387053750893,
        "Mean Anomaly(deg)": -196.36360000000005,
        "RAAN(deg)": 295.00000000000006,
        "Satellite Name": "Starlink Shell 1 1308",
        "Satellite Number": 1308,
        "Semi-Major Axis(m)": 6931778.249405717,
        "Time(s)": 0
    },
    {
        "Altitude(m)": 553483.8627888912,
        "Argument of Periapsis(deg)": 0.00034857847951123687,
        "Eccentricity": 0.0,
        "Inclination(deg)": 53.0,
        "Latitude(deg)": 12.50772353255143,
        "Longitude(deg)": 5.4185389468660645,
        "Mean Anomaly(deg)": -195.73676879644327,
        "RAAN(deg)": 294.99948122992254,
        "Satellite Name": "Starlink Shell 1 1308",
        "Satellite Number": 1308,
        "Semi-Major Axis(m)": 6931778.249405717,
        "Time(s)": 10
    },
    {
        "Altitude(m)": 553481.794295358,
        "Argument of Periapsis(deg)": 0.0006971569590224737,
        "Eccentricity": 0.0,
        "Inclination(deg)": 53.0,
        "Latitude(deg)": 12.010570624156975,
        "Longitude(deg)": 5.771694248820632,
        "Mean Anomaly(deg)": -195.10993759288655,
        "RAAN(deg)": 294.9989624598451,
        "Satellite Name": "Starlink Shell 1 1308",
        "Satellite Number": 1308,
        "Semi-Major Axis(m)": 6931778.249405717,
        "Time(s)": 20
    },
    {
        "Altitude(m)": 553482.3315648171,
        "Argument of Periapsis(deg)": 0.0010457354385337105,
        "Eccentricity": 0.0,
        "Inclination(deg)": 53.0,
        "Latitude(deg)": 11.512850864295267,
        "Longitude(deg)": 6.1234017466182955,
        "Mean Anomaly(deg)": -194.48310638932986,
        "RAAN(deg)": 294.9984436897676,
        "Satellite Name": "Starlink Shell 1 1308",
        "Satellite Number": 1308,
        "Semi-Major Axis(m)": 6931778.249405717,
        "Time(s)": 30
    },
    {
        "Altitude(m)": 553485.4972553212,
        "Argument of Periapsis(deg)": 0.0013943139180449475,
        "Eccentricity": 0.0,
        "Inclination(deg)": 53.0,
        "Latitude(deg)": 11.014590587665847,
        "Longitude(deg)": 6.473726622669376,
        "Mean Anomaly(deg)": -193.85627518577317,
        "RAAN(deg)": 294.99792491969015,
        "Satellite Name": "Starlink Shell 1 1308",
        "Satellite Number": 1308,
        "Semi-Major Axis(m)": 6931778.249405717,
        "Time(s)": 40
    },
    {
        "Altitude(m)": 553491.3128168413,
        "Argument of Periapsis(deg)": 0.0017428923975561844,
        "Eccentricity": 0.0,
        "Inclination(deg)": 53.0,
        "Latitude(deg)": 10.515815833842993,
        "Longitude(deg)": 6.822732956771819,
        "Mean Anomaly(deg)": -193.22944398221637,
        "RAAN(deg)": 294.9974061496127,
        "Satellite Name": "Starlink Shell 1 1308",
        "Satellite Number": 1308,
        "Semi-Major Axis(m)": 6931778.249405717,
        "Time(s)": 50
    },
    {
        "Altitude(m)": 553499.7984778727,
        "Argument of Periapsis(deg)": 0.002091470877067421,
        "Eccentricity": 0.0,
        "Inclination(deg)": 53.0,
        "Latitude(deg)": 10.016552361901715,
        "Longitude(deg)": 7.170484257135465,
        "Mean Anomaly(deg)": -192.60261277865968,
        "RAAN(deg)": 294.99688737953517,
        "Satellite Name": "Starlink Shell 1 1308",
        "Satellite Number": 1308,
        "Semi-Major Axis(m)": 6931778.249405717,
        "Time(s)": 60
    },
    {
        "Altitude(m)": 553510.9732326068,
        "Argument of Periapsis(deg)": 0.0024400493565786582,
        "Eccentricity": 0.0,
        "Inclination(deg)": 53.0,
        "Latitude(deg)": 9.516825664783685,
        "Longitude(deg)": 7.517043991327845,
        "Mean Anomaly(deg)": -191.97578157510304,
        "RAAN(deg)": 294.9963686094577,
        "Satellite Name": "Starlink Shell 1 1308",
        "Satellite Number": 1308,
        "Semi-Major Axis(m)": 6931778.249405717,
        "Time(s)": 70
    },
    {
        "Altitude(m)": 553524.8548287376,
        "Argument of Periapsis(deg)": 0.002788627836089895,
        "Eccentricity": 0.0,
        "Inclination(deg)": 53.0,
        "Latitude(deg)": 9.016660983414143,
        "Longitude(deg)": 7.862474604260632,
        "Mean Anomaly(deg)": -191.34895037154627,
        "RAAN(deg)": 294.99584983938024,
        "Satellite Name": "Starlink Shell 1 1308",
        "Satellite Number": 1308,
        "Semi-Major Axis(m)": 6931778.249405717,
        "Time(s)": 80
    },
    {
        "Altitude(m)": 553541.4597558919,
        "Argument of Periapsis(deg)": 0.0031372063156011316,
        "Eccentricity": 0.0,
        "Inclination(deg)": 53.0,
        "Latitude(deg)": 8.516083320587205,
        "Longitude(deg)": 8.206838048959868,
        "Mean Anomaly(deg)": -190.7221191679895,
        "RAAN(deg)": 294.9953310693028,
        "Satellite Name": "Starlink Shell 1 1308",
        "Satellite Number": 1308,
        "Semi-Major Axis(m)": 6931778.249405717,
        "Time(s)": 90
    },
    {
        "Altitude(m)": 553560.8032346452,
        "Argument of Periapsis(deg)": 0.0034857847951123688,
        "Eccentricity": 0.0,
        "Inclination(deg)": 53.0,
        "Latitude(deg)": 8.015117454628555,
        "Longitude(deg)": 8.55019631724484,
        "Mean Anomaly(deg)": -190.0952879644328,
        "RAAN(deg)": 294.99481229922526,
        "Satellite Name": "Starlink Shell 1 1308",
        "Satellite Number": 1308,
        "Semi-Major Axis(m)": 6931778.249405717,
        "Time(s)": 100
    },
    {
        "Altitude(m)": 553582.8992061791,
        "Argument of Periapsis(deg)": 0.003834363274623606,
        "Eccentricity": 0.0,
        "Inclination(deg)": 53.0,
        "Latitude(deg)": 7.513787952845202,
        "Longitude(deg)": 8.892610457439194,
        "Mean Anomaly(deg)": -189.46845676087608,
        "RAAN(deg)": 294.99429352914785,
        "Satellite Name": "Starlink Shell 1 1308",
        "Satellite Number": 1308,
        "Semi-Major Axis(m)": 6931778.249405717,
        "Time(s)": 110
    },
    {
        "Altitude(m)": 553607.7603225984,
        "Argument of Periapsis(deg)": 0.004182941754134842,
        "Eccentricity": 0.0,
        "Inclination(deg)": 53.0,
        "Latitude(deg)": 7.012119184780591,
        "Longitude(deg)": 9.234141104860788,
        "Mean Anomaly(deg)": -188.84162555731942,
        "RAAN(deg)": 294.9937747590704,
        "Satellite Name": "Starlink Shell 1 1308",
        "Satellite Number": 1308,
        "Semi-Major Axis(m)": 6931778.249405717,
        "Time(s)": 120
    },
    {
        "Altitude(m)": 553635.3979378317,
        "Argument of Periapsis(deg)": 0.004531520233646079,
        "Eccentricity": 0.0,
        "Inclination(deg)": 53.0,
        "Latitude(deg)": 6.510135335283196,
        "Longitude(deg)": 9.574849012218058,
        "Mean Anomaly(deg)": -188.2147943537626,
        "RAAN(deg)": 294.99325598899287,
        "Satellite Name": "Starlink Shell 1 1308",
        "Satellite Number": 1308,
        "Semi-Major Axis(m)": 6931778.249405717,
        "Time(s)": 130
    },
    {
        "Altitude(m)": 553665.8220992342,
        "Argument of Periapsis(deg)": 0.0048800987131573164,
        "Eccentricity": 0.0,
        "Inclination(deg)": 53.0,
        "Latitude(deg)": 6.00786041739939,
        "Longitude(deg)": 9.914794067040157,
        "Mean Anomaly(deg)": -187.587963150206,
        "RAAN(deg)": 294.9927372189154,
        "Satellite Name": "Starlink Shell 1 1308",
        "Satellite Number": 1308,
        "Semi-Major Axis(m)": 6931778.249405717,
        "Time(s)": 140
    },
    {
        "Altitude(m)": 553699.0415397887,
        "Argument of Periapsis(deg)": 0.005228677192668553,
        "Eccentricity": 0.0,
        "Inclination(deg)": 53.0,
        "Latitude(deg)": 5.505318285105204,
        "Longitude(deg)": 10.254035821890783,
        "Mean Anomaly(deg)": -186.96113194664923,
        "RAAN(deg)": 294.9922184488379,
        "Satellite Name": "Starlink Shell 1 1308",
        "Satellite Number": 1308,
        "Semi-Major Axis(m)": 6931778.249405717,
        "Time(s)": 150
    },
    {
        "Altitude(m)": 553735.0636709974,
        "Argument of Periapsis(deg)": 0.00557725567217979,
        "Eccentricity": 0.0,
        "Inclination(deg)": 53.0,
        "Latitude(deg)": 5.002532645890528,
        "Longitude(deg)": 10.592634024494224,
        "Mean Anomaly(deg)": -186.33430074309257,
        "RAAN(deg)": 294.9916996787605,
        "Satellite Name": "Starlink Shell 1 1308",
        "Satellite Number": 1308,
        "Semi-Major Axis(m)": 6931778.249405717,
        "Time(s)": 160
    },
    {
        "Altitude(m)": 553773.8945764074,
        "Argument of Periapsis(deg)": 0.0059258341516910265,
        "Eccentricity": 0.0,
        "Inclination(deg)": 53.0,
        "Latitude(deg)": 4.499527073199394,
        "Longitude(deg)": 10.930647634905714,
        "Mean Anomaly(deg)": -185.70746953953588,
        "RAAN(deg)": 294.991180908683,
        "Satellite Name": "Starlink Shell 1 1308",
        "Satellite Number": 1308,
        "Semi-Major Axis(m)": 6931778.249405717,
        "Time(s)": 170
    },
    {
        "Altitude(m)": 553815.5390058099,
        "Argument of Periapsis(deg)": 0.006274412631202263,
        "Eccentricity": 0.0,
        "Inclination(deg)": 53.0,
        "Latitude(deg)": 3.9963250187480184,
        "Longitude(deg)": 11.268135355475307,
        "Mean Anomaly(deg)": -185.08063833597913,
        "RAAN(deg)": 294.9906621386055,
        "Satellite Name": "Starlink Shell 1 1308",
        "Satellite Number": 1308,
        "Semi-Major Axis(m)": 6931778.249405717,
        "Time(s)": 180
    }
]